NORAD_CAT_ID,OBJECT_NAME,OBJECT_TYPE,EPOCH,MEAN_MOTION,ECCENTRICITY,INCLINATION,RA_OF_ASC_NODE,ARG_OF_PERICENTER,MEAN_ANOMALY,BSTAR,MEAN_MOTION_DOT,MEAN_MOTION_DDOT,TLE_LINE0,TLE_LINE1,TLE_LINE2,SEMIMAJOR_AXIS,PERIOD,APOGEE,PERIGEE,DECAYED
49755.0,STARLINK-3210,PAYLOAD,2024-05-06 14:19:37,15.08847092,0.0001398,53.2166,286.3099,87.7946,272.3207,0.00025605,3.79e-05,0.0,0 STARLINK-3210,1 49755U 21115AH  24127.59696194  .00003790  00000-0  25605-3 0  9995,2 49755  53.2166 286.3099 0001398  87.7946 272.3207 15.08847092134076,6917.859,95.437,540.691,538.757,0.0
49755.0,STARLINK-3210,PAYLOAD,2024-05-06 17:30:23,15.08854485,0.0001383,53.217,285.7172,96.1655,263.9495,0.00035581,5.382e-05,0.0,0 STARLINK-3210,1 49755U 21115AH  24127.72943808  .00005382  00000-0  35581-3 0  9990,2 49755  53.2170 285.7172 0001383  96.1655 263.9495 15.08854485135206,6917.836,95.437,540.658,538.744,0.0
49755.0,STARLINK-3210,PAYLOAD,2024-05-07 10:59:38,15.08843288,0.000122,53.2169,282.4437,89.2921,270.8211,0.00010617,1.402e-05,0.0,0 STARLINK-3210,1 49755U 21115AH  24128.45808184  .00001402  00000-0  10617-3 0  9990,2 49755  53.2169 282.4437 0001220  89.2921 270.8211 15.08843288135315,6917.87,95.437,540.579,538.891,0.0
49755.0,STARLINK-3210,PAYLOAD,2024-05-07 14:10:24,15.08837702,0.0001188,53.216,281.8489,83.7979,276.3148,-2.1572e-05,-6.31e-06,0.0,0 STARLINK-3210,1 49755U 21115AH  24128.59056352 -.00000631  00000-0 -21572-4 0  9995,2 49755  53.2160 281.8489 0001188  83.7979 276.3148 15.08837702134224,6917.887,95.438,540.574,538.931,0.0
49755.0,STARLINK-3210,PAYLOAD,2024-05-07 17:21:11,15.08838506,0.0001176,53.2156,281.2547,80.9551,279.1574,1.2436e-05,-9e-07,0.0,0 STARLINK-3210,1 49755U 21115AH  24128.72304416 -.00000090  00000-0  12436-4 0  9994,2 49755  53.2156 281.2547 0001176  80.9551 279.1574 15.08838506134249,6917.885,95.438,540.563,538.936,0.0
49755.0,STARLINK-3210,PAYLOAD,2024-05-08 02:53:29,15.0883525,0.0001063,53.215,279.4701,80.702,279.4092,-1.2312e-05,-4.84e-06,0.0,0 STARLINK-3210,1 49755U 21115AH  24129.12048611 -.00000484  00000-0 -12312-4 0  9992,2 49755  53.2150 279.4701 0001063  80.7020 279.4092 15.08835250135419,6917.895,95.438,540.495,539.025,0.0
49755.0,STARLINK-3210,PAYLOAD,2024-05-08 14:01:12,15.08838084,0.0001198,53.2169,277.3904,89.9655,270.1475,-1.2667e-05,-4.89e-06,0.0,0 STARLINK-3210,1 49755U 21115AH  24129.58417202 -.00000489  00000-0 -12667-4 0  9996,2 49755  53.2169 277.3904 0001198  89.9655 270.1475 15.08838084134370,6917.886,95.438,540.58,538.922,0.0
49755.0,STARLINK-3210,PAYLOAD,2024-05-08 17:11:58,15.08842956,0.0001249,53.2171,276.7969,93.6263,266.4872,3.6538e-05,2.94e-06,0.0,0 STARLINK-3210,1 49755U 21115AH  24129.71664718  .00000294  00000-0  36538-4 0  9992,2 49755  53.2171 276.7969 0001249  93.6263 266.4872 15.08842956134395,6917.871,95.437,540.6,538.872,0.0
49755.0,STARLINK-3210,PAYLOAD,2024-05-09 02:44:16,15.08844055,0.0001237,53.2176,275.0127,91.927,268.1863,4.7303e-05,4.65e-06,0.0,0 STARLINK-3210,1 49755U 21115AH  24130.11408554  .00000465  00000-0  47303-4 0  9994,2 49755  53.2176 275.0127 0001237  91.9270 268.1863 15.08844055135565,6917.868,95.437,540.589,538.877,0.0
49755.0,STARLINK-3210,PAYLOAD,2024-05-09 13:51:59,15.08841936,0.0001251,53.2175,272.9307,74.3057,285.8074,0.0002142,3.123e-05,0.0,0 STARLINK-3210,1 49755U 21115AH  24130.57776693  .00003123  00000-0  21420-3 0  9991,2 49755  53.2175 272.9307 0001251  74.3057 285.8074 15.08841936134524,6917.874,95.437,540.605,538.874,0.0
49755.0,STARLINK-3210,PAYLOAD,2024-05-09 17:02:44,15.08854131,0.0001208,53.2165,272.3353,84.9702,275.1428,0.00037974,5.763e-05,0.0,0 STARLINK-3210,1 49755U 21115AH  24130.71024272  .00005763  00000-0  37974-3 0  9999,2 49755  53.2165 272.3353 0001208  84.9702 275.1428 15.08854131134542,6917.837,95.437,540.538,538.867,0.0
49755.0,STARLINK-3210,PAYLOAD,2024-05-10 13:42:46,15.08843124,0.0001525,53.2171,268.4694,73.4808,286.6352,0.00015858,2.237e-05,0.0,0 STARLINK-3210,1 49755U 21115AH  24131.57136883  .00002237  00000-0  15858-3 0  9996,2 49755  53.2171 268.4694 0001525  73.4808 286.6352 15.08843124135785,6917.871,95.437,540.791,538.681,0.0
49755.0,STARLINK-3210,PAYLOAD,2024-05-10 15:18:09,15.0884411,0.0001319,53.2142,268.1711,70.1228,289.9906,0.00017926,2.566e-05,0.0,0 STARLINK-3210,1 49755U 21115AH  24131.63760752  .00002566  00000-0  17926-3 0  9994,2 49755  53.2142 268.1711 0001319  70.1228 289.9906 15.08844110134686,6917.868,95.437,540.645,538.82,0.0
49755.0,STARLINK-3210,PAYLOAD,2024-05-10 18:28:55,15.08858188,0.0001359,53.2176,267.576,73.215,286.8991,0.00032207,4.844e-05,0.0,0 STARLINK-3210,1 49755U 21115AH  24131.77008141  .00004844  00000-0  32207-3 0  9996,2 49755  53.2176 267.5760 0001359  73.2150 286.8991 15.08858188135818,6917.825,95.436,540.63,538.75,0.0
49755.0,STARLINK-3210,PAYLOAD,2024-05-11 08:47:21,15.08894616,0.0001284,53.2171,264.8977,74.9501,285.1633,0.00088166,0.00013792,0.0,0 STARLINK-3210,1 49755U 21115AH  24132.36622357  .00013792  00000-0  88166-3 0  9990,2 49755  53.2171 264.8977 0001284  74.9501 285.1633 15.08894616135909,6917.713,95.434,540.467,538.69,0.0
49755.0,STARLINK-3210,PAYLOAD,2024-05-11 18:19:41,15.088298,0.0001531,53.2179,263.1169,70.1857,289.93,-0.00056804,-9.314e-05,0.0,0 STARLINK-3210,1 49755U 21115AH  24132.76367648 -.00009314  00000-0 -56804-3 0  9994,2 49755  53.2179 263.1169 0001531  70.1857 289.9300 15.08829800135961,6917.912,95.438,540.836,538.717,0.0
49755.0,STARLINK-3210,PAYLOAD,2024-05-12 02:16:39,15.08785391,0.0001818,53.2185,261.6294,75.3209,284.7985,-0.0015255,-0.00024448,0.0,0 STARLINK-3210,1 49755U 21115AH  24133.09489589 -.00024448  00000-0 -15255-2 0  9999,2 49755  53.2185 261.6294 0001818  75.3209 284.7985 15.08785391136011,6918.047,95.441,541.17,538.655,0.0
49755.0,STARLINK-3210,PAYLOAD,2024-05-12 13:24:21,15.08806245,0.0002463,53.2191,259.5481,134.6792,225.4401,-8.3943e-05,-1.623e-05,0.0,0 STARLINK-3210,1 49755U 21115AH  24133.55858581 -.00001623  00000-0 -83943-4 0  9993,2 49755  53.2191 259.5481 0002463 134.6792 225.4401 15.08806245136089,6917.984,95.44,541.552,538.145,0.0
49755.0,STARLINK-3210,PAYLOAD,2024-05-12 14:59:45,15.08808462,0.0001183,53.2168,259.2506,83.8705,276.2421,0.00023436,3.441e-05,0.0,0 STARLINK-3210,1 49755U 21115AH  24133.62482974  .00003441  00000-0  23436-3 0  9998,2 49755  53.2168 259.2506 0001183  83.8705 276.2421 15.08808462134981,6917.977,95.44,540.66,539.023,0.0
49755.0,STARLINK-3210,PAYLOAD,2024-05-13 11:39:47,15.08835283,9.3e-05,53.2166,255.3857,77.0222,283.0874,0.0012758,0.00020072,0.0,0 STARLINK-3210,1 49755U 21115AH  24134.48596180  .00020072  00000-0  12758-2 0  9991,2 49755  53.2166 255.3857 0000930  77.0222 283.0874 15.08835283136221,6917.895,95.438,540.403,539.116,0.0
49755.0,STARLINK-3210,PAYLOAD,2024-05-13 14:50:33,15.08849601,9.92e-05,53.2167,254.7904,83.1924,276.9181,0.0014812,0.0002337,0.0,0 STARLINK-3210,1 49755U 21115AH  24134.61843887  .00023370  00000-0  14812-2 0  9992,2 49755  53.2167 254.7904 0000992  83.1924 276.9181 15.08849601135133,6917.851,95.437,540.402,539.03,0.0
49755.0,STARLINK-3210,PAYLOAD,2024-05-13 18:01:18,15.08869405,9.47e-05,53.2166,254.1952,78.9149,281.195,0.0010974,0.00017234,0.0,0 STARLINK-3210,1 49755U 21115AH  24134.75091243  .00017234  00000-0  10974-2 0  9995,2 49755  53.2166 254.1952 0000947  78.9149 281.1950 15.08869405136261,6917.791,95.436,540.311,539.0,0.0
49755.0,STARLINK-3210,PAYLOAD,2024-05-14 11:30:32,15.08863671,0.0001129,53.2158,250.9232,81.8619,278.2502,0.00056387,8.703e-05,0.0,0 STARLINK-3210,1 49755U 21115AH  24135.47954358  .00008703  00000-0  56387-3 0  9990,2 49755  53.2158 250.9232 0001129  81.8619 278.2502 15.08863671136376,6917.808,95.436,540.454,538.892,0.0
49755.0,STARLINK-3210,PAYLOAD,2024-05-14 14:41:18,15.0887177,0.000125,53.2164,250.3297,84.2167,275.8968,0.00063624,9.861e-05,0.0,0 STARLINK-3210,1 49755U 21115AH  24135.61201783  .00009861  00000-0  63624-3 0  9991,2 49755  53.2164 250.3297 0001250  84.2167 275.8968 15.08871770135285,6917.783,95.436,540.513,538.784,0.0
49755.0,STARLINK-3210,PAYLOAD,2024-05-15 12:56:41,15.08857376,0.0001289,53.218,246.1674,94.1089,266.005,-2.2588e-05,-6.48e-06,0.0,0 STARLINK-3210,1 49755U 21115AH  24136.53937034 -.00000648  00000-0 -22588-4 0  9999,2 49755  53.2180 246.1674 0001289  94.1089 266.0050 15.08857376136539,6917.827,95.436,540.584,538.801,0.0
49755.0,STARLINK-3210,PAYLOAD,2024-05-16 00:04:22,15.08868959,0.0001055,53.2148,244.0845,64.3401,295.77,0.00036527,5.535e-05,0.0,0 STARLINK-3210,1 49755U 21115AH  24137.00304168  .00005535  00000-0  36527-3 0  9993,2 49755  53.2148 244.0845 0001055  64.3401 295.7700 15.08868959136606,6917.792,95.436,540.387,538.927,0.0
49755.0,STARLINK-3210,PAYLOAD,2024-05-16 11:12:04,15.08859103,0.0001751,53.2169,242.0039,77.4512,282.6676,0.00032505,4.892e-05,0.0,0 STARLINK-3210,1 49755U 21115AH  24137.46672177  .00004892  00000-0  32505-3 0  9998,2 49755  53.2169 242.0039 0001751  77.4512 282.6676 15.08859103136678,6917.822,95.436,540.898,538.476,0.0
49755.0,STARLINK-3210,PAYLOAD,2024-05-16 17:33:36,15.08884141,0.0001048,53.2155,240.8123,97.4797,262.6315,0.00091596,0.00014337,0.0,0 STARLINK-3210,1 49755U 21115AH  24137.73166810  .00014337  00000-0  91596-3 0  9990,2 49755  53.2155 240.8123 0001048  97.4797 262.6315 15.08884141136712,6917.745,95.435,540.335,538.885,0.0
49755.0,STARLINK-3210,PAYLOAD,2024-05-16 23:55:09,15.08839413,0.0001014,53.2162,239.6224,80.3268,279.7839,-0.00042312,-7.015e-05,0.0,0 STARLINK-3210,1 49755U 21115AH  24137.99663743 -.00007015  00000-0 -42312-3 0  9994,2 49755  53.2162 239.6224 0001014  80.3268 279.7839 15.08839413136751,6917.882,95.438,540.449,539.046,0.0
49755.0,STARLINK-3210,PAYLOAD,2024-05-17 11:02:51,15.08834171,0.0002345,53.2159,237.5368,82.7643,277.3615,-0.000182,-3.183e-05,0.0,0 STARLINK-3210,1 49755U 21115AH  24138.46032384 -.00003183  00000-0 -18200-3 0  9999,2 49755  53.2159 237.5368 0002345  82.7643 277.3615 15.08834171135711,6917.898,95.438,541.385,538.141,0.0
